STARLINK-37816          
1 69478U 26131A   26183.50745245  .00280322  00000+0  14098-2 0  9999
2 69478  97.2822 204.6736 0000486  64.4524 295.6795 15.80936970  4585
STARLINK-37878          
1 69479U 26131B   26183.63966995  .00304185  00000+0  15216-2 0  9998
2 69479  97.2834 204.8013 0001513  64.3000 295.8424 15.80994711  4600
STARLINK-37817          
1 69480U 26131C   26183.66668981  .00040756  00000+0  21289-3 0  9996
2 69480  97.2834 204.8472 0001807 101.2192  93.1313 15.80776829  4491
STARLINK-37727          
1 69481U 26131D   26183.25199778  .00280416  00000+0  14159-2 0  9991
2 69481  97.2851 204.4092 0001685  77.9216 282.2241 15.80850172  4546
STARLINK-37814          
1 69482U 26131E   26184.41675926 -.00347430  00000+0 -18707-2 0  9990
2 69482  97.2830 205.6439 0001551  96.6106  52.0024 15.80993508  4611
STARLINK-37869          
1 69483U 26131F   26184.41675926  .00136465  00000+0  70403-3 0  9995
2 69483  97.2830 205.6456 0001446 111.1411  41.7220 15.80755487  4611
STARLINK-37873          
1 69484U 26131G   26183.69298889  .00710289  00000+0  33996-2 0  9991
2 69484  97.2836 204.8800 0001079 123.6171 236.5200 15.80917018  4617
STARLINK-37892          
1 69485U 26131H   26182.99577979  .00294383  00000+0  14859-2 0  9993
2 69485  97.2846 204.1453 0001556  85.8603 274.2843 15.80822385  4507
STARLINK-37893          
1 69486U 26131J   26183.69134390  .00240279  00000+0  12178-2 0  9995
2 69486  97.2828 204.8832 0001491  99.5464 260.5973 15.80872403  4611
STARLINK-37842          
1 69487U 26131K   26182.99427387  .00292338  00000+0  14740-2 0  9999
2 69487  97.2841 204.1474 0001414  82.8408 277.3021 15.80851464  4502
STARLINK-37449          
1 69488U 26131L   26183.49993902  .00265439  00000+0  13387-2 0  9995
2 69488  97.2841 204.6841 0001076  84.0935 276.0456 15.80914412  4588
STARLINK-37831          
1 69489U 26131M   26183.05607524  .00203214  00000+0  10347-2 0  9996
2 69489  97.2842 204.2157 0001339  47.9424 312.1958 15.80868080  4510
STARLINK-37879          
1 69490U 26131N   26183.49843990  .00420184  00000+0  20741-2 0  9991
2 69490  97.2837 204.6860 0001647  78.4392 281.7061 15.80988396  4582
STARLINK-37856          
1 69491U 26131P   26183.06297364  .00256541  00000+0  13002-2 0  9999
2 69491  97.2817 204.2067 0000662 112.8145 247.3193 15.80829351  4513
STARLINK-37568          
1 69492U 26131Q   26183.81344195  .00458740  00000+0  22376-2 0  9997
2 69492  97.2838 205.0232 0001842  30.2616 329.8759 15.81151218  4635
STARLINK-37855          
1 69493U 26131R   26184.41675926  .00087693  00000+0  45470-3 0  9990
2 69493  97.2831 205.6470 0001696 109.9555  46.3654 15.80780138  4679
STARLINK-37854          
1 69494U 26131S   26184.41675926  .00087663  00000+0  45451-3 0  9997
2 69494  97.2831 205.6446 0001575 111.3095  38.3384 15.80781949  4677
STARLINK-37789          
1 69495U 26131T   26183.81119273  .00370318  00000+0  18441-2 0  9999
2 69495  97.2841 205.0256 0003660  73.8480 286.3190 15.80921214  3376
STARLINK-37839          
1 69496U 26131U   26183.81831518  .00214518  00000+0  10892-2 0  9994
2 69496  97.2836 205.0165 0001015  83.0619 277.0765 15.80898829  3379
STARLINK-37798          
1 69497U 26131V   26183.68383044  .00500084  00000+0  24329-2 0  9992
2 69497  97.2826 204.8934 0001178  81.6402 278.5000 15.81101077  3353
STARLINK-37853          
1 69498U 26131W   26183.80667741  .00348746  00000+0  17420-2 0  9995
2 69498  97.2844 205.0326 0002115  75.7668 284.3835 15.80912370  3370
STARLINK-37849          
1 69499U 26131X   26183.49092141  .00231658  00000+0  11744-2 0  9993
2 69499  97.2845 204.6963 0001626  91.2179 268.9275 15.80888061  3320
STARLINK-37835          
1 69500U 26131Y   26183.49241813  .00214627  00000+0  10924-2 0  9994
2 69500  97.2845 204.6957 0000900  76.4398 283.6971 15.80845588  3322
STARLINK-37843          
1 69501U 26131Z   26183.80817670  .00129617  00000+0  66586-3 0  9990
2 69501  97.2845 205.0304 0001245  88.6512 271.4899 15.80867423  3371
STARS-X                 
1 69502U 26132A   26183.84142011  .00001686  00000+0  14357-3 0  9990
2 69502  97.6883 247.3094 0013534 210.7929 149.2501 14.99079164  3128
2026-132B               
1 69503U 26132B   26183.77345888  .00001375  00000+0  11776-3 0  9997
2 69503  97.6913 247.2534 0013439 213.2043 146.8338 14.99161214  3118
BRO-22                  
1 69504U 26132C   26183.76486152  .00001301  00000+0  10984-3 0  9996
2 69504  97.6842 247.2459 0015292 226.3121 133.6836 14.99781859  3117
HORN-L                  
1 69505U 26132D   26182.98083851  .00004171  00000+0  27936-3 0  9992
2 69505  97.6877 246.5764 0022147 244.8093 115.0838 15.07265504  3005
VERTECS                 
1 69506U 26132E   26183.61587664  .00003131  00000+0  24992-3 0  9999
2 69506  97.6858 247.1449 0014117 249.2298 110.7413 15.00946610  3082
HORN-R                  
1 69507U 26132F   26182.13201597  .00001861  00000+0  13953-3 0  9997
2 69507  97.6839 245.6971 0016067 247.6281 112.3242 15.03814155  2869
