OBJECT_NAME,OBJECT_ID,EPOCH,MEAN_MOTION,ECCENTRICITY,INCLINATION,RA_OF_ASC_NODE,ARG_OF_PERICENTER,MEAN_ANOMALY,EPHEMERIS_TYPE,CLASSIFICATION_TYPE,NORAD_CAT_ID,ELEMENT_SET_NO,REV_AT_EPOCH,BSTAR,MEAN_MOTION_DOT,MEAN_MOTION_DDOT
STARLINK-37816,2026-131A,2026-07-02T12:10:43.891680,15.80936970,.0000486,97.2822,204.6736,64.4524,295.6795,0,U,69478,999,458,.14098E-2,.280322E-2,0
STARLINK-37878,2026-131B,2026-07-02T15:21:07.483680,15.80994711,.00015136,97.2834,204.8013,64.3000,295.8424,0,U,69479,999,460,.15216129E-2,.304185E-2,0
STARLINK-37817,2026-131C,2026-07-02T16:00:01.999584,15.80776829,.0001807,97.2834,204.8472,101.2192,93.1313,0,U,69480,999,449,.21289028E-3,.40756E-3,0
STARLINK-37727,2026-131D,2026-07-02T06:02:52.608192,15.80850172,.0001685,97.2851,204.4092,77.9216,282.2241,0,U,69481,999,454,.14159E-2,.280416E-2,0
STARLINK-37814,2026-131E,2026-07-03T10:00:08.000064,15.80993508,.00015513,97.2830,205.6439,96.6106,52.0024,0,U,69482,999,461,-.1870695E-2,-.34743E-2,0
STARLINK-37869,2026-131F,2026-07-03T10:00:08.000064,15.80755487,.00014469,97.2830,205.6456,111.1411,41.7220,0,U,69483,999,461,.70402872E-3,.136465E-2,0
STARLINK-37873,2026-131G,2026-07-02T16:37:54.240096,15.80917018,.00010791,97.2836,204.8800,123.6171,236.5200,0,U,69484,999,461,.33996101E-2,.710289E-2,0
STARLINK-37892,2026-131H,2026-07-01T23:53:55.373856,15.80822385,.00015564,97.2846,204.1453,85.8603,274.2843,0,U,69485,999,450,.14859016E-2,.294383E-2,0
STARLINK-37893,2026-131J,2026-07-02T16:35:32.112960,15.80872403,.0001491,97.2828,204.8832,99.5464,260.5973,0,U,69486,999,461,.12177886E-2,.240279E-2,0
STARLINK-37842,2026-131K,2026-07-01T23:51:45.262368,15.80851464,.00014146,97.2841,204.1474,82.8408,277.3021,0,U,69487,999,450,.14739839E-2,.292338E-2,0
STARLINK-37449,2026-131L,2026-07-02T11:59:54.731328,15.80914412,.0001076,97.2841,204.6841,84.0935,276.0456,0,U,69488,999,458,.13387E-2,.265439E-2,0
STARLINK-37831,2026-131M,2026-07-02T01:20:44.900736,15.80868080,.00013394,97.2842,204.2157,47.9424,312.1958,0,U,69489,999,451,.10346723E-2,.203214E-2,0
STARLINK-37879,2026-131N,2026-07-02T11:57:45.207360,15.80988396,.0001647,97.2837,204.6860,78.4392,281.7061,0,U,69490,999,458,.20741E-2,.420184E-2,0
STARLINK-37856,2026-131P,2026-07-02T01:30:40.922496,15.80829351,.00006623,97.2817,204.2067,112.8145,247.3193,0,U,69491,999,451,.13002415E-2,.256541E-2,0
STARLINK-37568,2026-131Q,2026-07-02T19:31:21.384480,15.81151218,.00018422,97.2838,205.0232,30.2616,329.8759,0,U,69492,999,463,.22375653E-2,.45874E-2,0
STARLINK-37855,2026-131R,2026-07-03T10:00:08.000064,15.80780138,.00016961,97.2831,205.6470,109.9555,46.3654,0,U,69493,999,467,.45470165E-3,.87693E-3,0
STARLINK-37854,2026-131S,2026-07-03T10:00:08.000064,15.80781949,.00015751,97.2831,205.6446,111.3095,38.3384,0,U,69494,999,467,.45451181E-3,.87663E-3,0
STARLINK-37789,2026-131T,2026-07-02T19:28:07.051872,15.80921214,.00036603,97.2841,205.0256,73.8480,286.3190,0,U,69495,999,337,.18441004E-2,.370318E-2,0
STARLINK-37839,2026-131U,2026-07-02T19:38:22.431552,15.80898829,.00010159,97.2836,205.0165,83.0619,277.0765,0,U,69496,999,337,.10892319E-2,.214518E-2,0
STARLINK-37798,2026-131V,2026-07-02T16:24:42.950016,15.81101077,.00011782,97.2826,204.8934,81.6402,278.5000,0,U,69497,999,335,.24328848E-2,.500084E-2,0
STARLINK-37853,2026-131W,2026-07-02T19:21:36.928224,15.80912370,.00021158,97.2844,205.0326,75.7668,284.3835,0,U,69498,999,337,.17419506E-2,.348746E-2,0
STARLINK-37849,2026-131X,2026-07-02T11:46:55.609824,15.80888061,.0001626,97.2845,204.6963,91.2179,268.9275,0,U,69499,999,332,.11744E-2,.231658E-2,0
STARLINK-37835,2026-131Y,2026-07-02T11:49:04.926432,15.80845588,.00009,97.2845,204.6957,76.4398,283.6971,0,U,69500,999,332,.10924E-2,.214627E-2,0
STARLINK-37843,2026-131Z,2026-07-02T19:23:46.466880,15.80867423,.00012456,97.2845,205.0304,88.6512,271.4899,0,U,69501,999,337,.66586198E-3,.129617E-2,0
STARS-X,2026-132A,2026-07-02T20:11:38.697504,14.99079164,.00135346,97.6883,247.3094,210.7929,149.2501,0,U,69502,999,312,.14356943E-3,.1686E-4,0
2026-132B,2026-132B,2026-07-02T18:33:46.847232,14.99161214,.00134396,97.6913,247.2534,213.2043,146.8338,0,U,69503,999,311,.11775666E-3,.1375E-4,0
BRO-22,2026-132C,2026-07-02T18:21:24.035328,14.99781859,.0015292,97.6842,247.2459,226.3121,133.6836,0,U,69504,999,311,.10983733E-3,.1301E-4,0
HORN-L,2026-132D,2026-07-01T23:32:24.447264,15.07265504,.00221475,97.6877,246.5764,244.8093,115.0838,0,U,69505,999,300,.27935615E-3,.4171E-4,0
VERTECS,2026-132E,2026-07-02T14:46:51.741696,15.00946610,.00141173,97.6858,247.1449,249.2298,110.7413,0,U,69506,999,308,.24991764E-3,.3131E-4,0
HORN-R,2026-132F,2026-07-01T03:10:06.179808,15.03814155,.00160675,97.6839,245.6971,247.6281,112.3242,0,U,69507,999,286,.13953478E-3,.1861E-4,0
